[{"OBJECT_NAME":"STARLINK-5416","OBJECT_ID":"2022-177AM","EPOCH":"2025-11-18T12:56:03.863904","MEAN_MOTION":15.02531641,"ECCENTRICITY":0.00012268,"INCLINATION":43.0072,"RA_OF_ASC_NODE":4.4315,"ARG_OF_PERICENTER":268.6126,"MEAN_ANOMALY":91.4575,"EPHEMERIS_TYPE":0,"CLASSIFICATION_TYPE":"U","NORAD_CAT_ID":54855,"ELEMENT_SET_NO":999,"REV_AT_EPOCH":16038,"BSTAR":9.0120824e-5,"MEAN_MOTION_DOT":1.014e-5,"MEAN_MOTION_DDOT":0},{"OBJECT_NAME":"STARLINK-5086","OBJECT_ID":"2022-177AN","EPOCH":"2025-11-17T20:29:59.265888","MEAN_MOTION":15.02547367,"ECCENTRICITY":0.00016161,"INCLINATION":43.0046,"RA_OF_ASC_NODE":7.8925,"ARG_OF_PERICENTER":261.5448,"MEAN_ANOMALY":98.5211,"EPHEMERIS_TYPE":0,"CLASSIFICATION_TYPE":"U","NORAD_CAT_ID":54856,"ELEMENT_SET_NO":999,"REV_AT_EPOCH":16028,"BSTAR":0.00031598103,"MEAN_MOTION_DOT":4.068e-5,"MEAN_MOTION_DDOT":0},{"OBJECT_NAME":"STARLINK-5078","OBJECT_ID":"2022-177AP","EPOCH":"2025-11-17T20:45:58.978944","MEAN_MOTION":15.02541218,"ECCENTRICITY":0.00014725,"INCLINATION":43.0038,"RA_OF_ASC_NODE":7.9801,"ARG_OF_PERICENTER":264.7992,"MEAN_ANOMALY":95.2683,"EPHEMERIS_TYPE":0,"CLASSIFICATION_TYPE":"U","NORAD_CAT_ID":54857,"ELEMENT_SET_NO":999,"REV_AT_EPOCH":16028,"BSTAR":-0.00012258023,"MEAN_MOTION_DOT":-1.859e-5,"MEAN_MOTION_DDOT":0},{"OBJECT_NAME":"STARLINK-5407","OBJECT_ID":"2022-177AQ","EPOCH":"2025-11-17T20:49:10.967520","MEAN_MOTION":15.0252662,"ECCENTRICITY":0.00011601,"INCLINATION":43.0052,"RA_OF_ASC_NODE":7.9854,"ARG_OF_PERICENTER":260.7899,"MEAN_ANOMALY":99.2812,"EPHEMERIS_TYPE":0,"CLASSIFICATION_TYPE":"U","NORAD_CAT_ID":54858,"ELEMENT_SET_NO":999,"REV_AT_EPOCH":16028,"BSTAR":7.5226014e-5,"MEAN_MOTION_DOT":8.12e-6,"MEAN_MOTION_DDOT":0},{"OBJECT_NAME":"STARLINK-5409","OBJECT_ID":"2022-177AR","EPOCH":"2025-11-18T09:20:39.119424","MEAN_MOTION":15.0252123,"ECCENTRICITY":0.00012895,"INCLINATION":43.0064,"RA_OF_ASC_NODE":5.03,"ARG_OF_PERICENTER":263.1589,"MEAN_ANOMALY":96.9107,"EPHEMERIS_TYPE":0,"CLASSIFICATION_TYPE":"U","NORAD_CAT_ID":54859,"ELEMENT_SET_NO":999,"REV_AT_EPOCH":16036,"BSTAR":-0.0001376324,"MEAN_MOTION_DOT":-2.062e-5,"MEAN_MOTION_DDOT":0},{"OBJECT_NAME":"STARLINK-5406","OBJECT_ID":"2022-177AS","EPOCH":"2025-11-18T20:22:43.767552","MEAN_MOTION":15.02532694,"ECCENTRICITY":0.00013934,"INCLINATION":43.0047,"RA_OF_ASC_NODE":2.4545,"ARG_OF_PERICENTER":254.6824,"MEAN_ANOMALY":105.3864,"EPHEMERIS_TYPE":0,"CLASSIFICATION_TYPE":"U","NORAD_CAT_ID":54860,"ELEMENT_SET_NO":999,"REV_AT_EPOCH":16043,"BSTAR":-2.4353756e-5,"MEAN_MOTION_DOT":-5.33e-6,"MEAN_MOTION_DDOT":0},{"OBJECT_NAME":"STARLINK-5400","OBJECT_ID":"2022-177AT","EPOCH":"2025-11-17T12:52:08.038560","MEAN_MOTION":15.0255289,"ECCENTRICITY":0.00013421,"INCLINATION":43.0068,"RA_OF_ASC_NODE":9.8052,"ARG_OF_PERICENTER":277.7697,"MEAN_ANOMALY":82.2993,"EPHEMERIS_TYPE":0,"CLASSIFICATION_TYPE":"U","NORAD_CAT_ID":54861,"ELEMENT_SET_NO":999,"REV_AT_EPOCH":16023,"BSTAR":-0.0002040809,"MEAN_MOTION_DOT":-2.961e-5,"MEAN_MOTION_DDOT":0},{"OBJECT_NAME":"STARLINK-5403","OBJECT_ID":"2022-177AU","EPOCH":"2025-11-17T19:48:36.364896","MEAN_MOTION":15.02538981,"ECCENTRICITY":0.0001241,"INCLINATION":43.0048,"RA_OF_ASC_NODE":8.5495,"ARG_OF_PERICENTER":277.1953,"MEAN_ANOMALY":82.8749,"EPHEMERIS_TYPE":0,"CLASSIFICATION_TYPE":"U","NORAD_CAT_ID":54862,"ELEMENT_SET_NO":999,"REV_AT_EPOCH":16027,"BSTAR":4.3856357e-5,"MEAN_MOTION_DOT":3.89e-6,"MEAN_MOTION_DDOT":0},{"OBJECT_NAME":"STARLINK-5405","OBJECT_ID":"2022-177AV","EPOCH":"2025-11-17T12:40:56.558496","MEAN_MOTION":15.02537441,"ECCENTRICITY":0.0001494,"INCLINATION":43.0042,"RA_OF_ASC_NODE":9.7476,"ARG_OF_PERICENTER":261.0205,"MEAN_ANOMALY":99.0468,"EPHEMERIS_TYPE":0,"CLASSIFICATION_TYPE":"U","NORAD_CAT_ID":54863,"ELEMENT_SET_NO":999,"REV_AT_EPOCH":16023,"BSTAR":-2.3312971e-5,"MEAN_MOTION_DOT":-5.19e-6,"MEAN_MOTION_DDOT":0},{"OBJECT_NAME":"STARLINK-5359","OBJECT_ID":"2022-177AW","EPOCH":"2025-11-18T20:17:55.443840","MEAN_MOTION":15.02543463,"ECCENTRICITY":0.00018252,"INCLINATION":43.0077,"RA_OF_ASC_NODE":2.4253,"ARG_OF_PERICENTER":268.9554,"MEAN_ANOMALY":91.108,"EPHEMERIS_TYPE":0,"CLASSIFICATION_TYPE":"U","NORAD_CAT_ID":54864,"ELEMENT_SET_NO":999,"REV_AT_EPOCH":16043,"BSTAR":-0.00016212682,"MEAN_MOTION_DOT":-2.394e-5,"MEAN_MOTION_DDOT":0},{"OBJECT_NAME":"STARLINK-5411","OBJECT_ID":"2022-177AX","EPOCH":"2025-11-18T12:41:40.174944","MEAN_MOTION":15.0252964,"ECCENTRICITY":8.407e-5,"INCLINATION":43.0044,"RA_OF_ASC_NODE":4.3544,"ARG_OF_PERICENTER":271.4025,"MEAN_ANOMALY":88.6721,"EPHEMERIS_TYPE":0,"CLASSIFICATION_TYPE":"U","NORAD_CAT_ID":54865,"ELEMENT_SET_NO":999,"REV_AT_EPOCH":16038,"BSTAR":-0.00015937925,"MEAN_MOTION_DOT":-2.355e-5,"MEAN_MOTION_DDOT":0},{"OBJECT_NAME":"STARLINK-5398","OBJECT_ID":"2022-177AY","EPOCH":"2025-11-18T12:04:54.243840","MEAN_MOTION":15.02535688,"ECCENTRICITY":0.00016709,"INCLINATION":43.0076,"RA_OF_ASC_NODE":4.1576,"ARG_OF_PERICENTER":273.0503,"MEAN_ANOMALY":87.0148,"EPHEMERIS_TYPE":0,"CLASSIFICATION_TYPE":"U","NORAD_CAT_ID":54866,"ELEMENT_SET_NO":999,"REV_AT_EPOCH":16038,"BSTAR":2.6789545e-5,"MEAN_MOTION_DOT":1.58e-6,"MEAN_MOTION_DDOT":0},{"OBJECT_NAME":"STARLINK-5396","OBJECT_ID":"2022-177AZ","EPOCH":"2025-11-18T20:21:06.760224","MEAN_MOTION":15.02544654,"ECCENTRICITY":0.0001312,"INCLINATION":43.0038,"RA_OF_ASC_NODE":2.4457,"ARG_OF_PERICENTER":257.1422,"MEAN_ANOMALY":102.9274,"EPHEMERIS_TYPE":0,"CLASSIFICATION_TYPE":"U","NORAD_CAT_ID":54867,"ELEMENT_SET_NO":999,"REV_AT_EPOCH":16043,"BSTAR":5.821456e-5,"MEAN_MOTION_DOT":5.83e-6,"MEAN_MOTION_DDOT":0},{"OBJECT_NAME":"STARLINK-5379","OBJECT_ID":"2022-177BA","EPOCH":"2025-11-18T19:57:09.005472","MEAN_MOTION":15.02536525,"ECCENTRICITY":0.00015314,"INCLINATION":43.0047,"RA_OF_ASC_NODE":2.3226,"ARG_OF_PERICENTER":259.1175,"MEAN_ANOMALY":100.9496,"EPHEMERIS_TYPE":0,"CLASSIFICATION_TYPE":"U","NORAD_CAT_ID":54868,"ELEMENT_SET_NO":999,"REV_AT_EPOCH":16043,"BSTAR":2.7705485e-5,"MEAN_MOTION_DOT":1.71e-6,"MEAN_MOTION_DDOT":0},{"OBJECT_NAME":"STARLINK-5402","OBJECT_ID":"2022-177BB","EPOCH":"2025-11-18T20:11:32.038656","MEAN_MOTION":15.02536167,"ECCENTRICITY":0.00016219,"INCLINATION":43.0065,"RA_OF_ASC_NODE":2.3976,"ARG_OF_PERICENTER":254.842,"MEAN_ANOMALY":105.2243,"EPHEMERIS_TYPE":0,"CLASSIFICATION_TYPE":"U","NORAD_CAT_ID":54869,"ELEMENT_SET_NO":999,"REV_AT_EPOCH":16043,"BSTAR":1.81875e-6,"MEAN_MOTION_DOT":-1.79e-6,"MEAN_MOTION_DDOT":0},{"OBJECT_NAME":"STARLINK-5401","OBJECT_ID":"2022-177BC","EPOCH":"2025-11-18T20:00:20.892096","MEAN_MOTION":15.02535735,"ECCENTRICITY":0.00017636,"INCLINATION":43.0059,"RA_OF_ASC_NODE":2.3405,"ARG_OF_PERICENTER":263.4182,"MEAN_ANOMALY":96.6459,"EPHEMERIS_TYPE":0,"CLASSIFICATION_TYPE":"U","NORAD_CAT_ID":54870,"ELEMENT_SET_NO":999,"REV_AT_EPOCH":16043,"BSTAR":-9.574514e-6,"MEAN_MOTION_DOT":-3.33e-6,"MEAN_MOTION_DDOT":0}]
