STARLINK-5416           
1 54855U 22177AM  25322.53893361  .00001014  00000+0  90121-4 0  9990
2 54855  43.0072   4.4315 0001226 268.6126  91.4575 15.02531641160381
STARLINK-5086           
1 54856U 22177AN  25321.85415817  .00004068  00000+0  31598-3 0  9995
2 54856  43.0046   7.8925 0001616 261.5448  98.5211 15.02547367160285
STARLINK-5078           
1 54857U 22177AP  25321.86526596 -.00001859  00000+0 -12258-3 0  9993
2 54857  43.0038   7.9801 0001472 264.7992  95.2683 15.02541218160286
STARLINK-5407           
1 54858U 22177AQ  25321.86748805  .00000812  00000+0  75226-4 0  9994
2 54858  43.0052   7.9854 0001160 260.7899  99.2812 15.02526620160285
STARLINK-5409           
1 54859U 22177AR  25322.38934166 -.00002062  00000+0 -13763-3 0  9998
2 54859  43.0064   5.0300 0001289 263.1589  96.9107 15.02521230160361
STARLINK-5406           
1 54860U 22177AS  25322.84911768 -.00000533  00000+0 -24354-4 0  9994
2 54860  43.0047   2.4545 0001393 254.6824 105.3864 15.02532694160438
STARLINK-5400           
1 54861U 22177AT  25321.53620415 -.00002961  00000+0 -20408-3 0  9998
2 54861  43.0068   9.8052 0001342 277.7697  82.2993 15.02552890160238
STARLINK-5403           
1 54862U 22177AU  25321.82542089  .00000389  00000+0  43856-4 0  9994
2 54862  43.0048   8.5495 0001241 277.1953  82.8749 15.02538981160275
STARLINK-5405           
1 54863U 22177AV  25321.52843239 -.00000519  00000+0 -23313-4 0  9996
2 54863  43.0042   9.7476 0001494 261.0205  99.0468 15.02537441160238
STARLINK-5359           
1 54864U 22177AW  25322.84578060 -.00002394  00000+0 -16213-3 0  9993
2 54864  43.0077   2.4253 0001825 268.9554  91.1080 15.02543463160437
STARLINK-5411           
1 54865U 22177AX  25322.52893721 -.00002355  00000+0 -15938-3 0  9993
2 54865  43.0044   4.3544 0000840 271.4025  88.6721 15.02529640160382
STARLINK-5398           
1 54866U 22177AY  25322.50340560  .00000158  00000+0  26790-4 0  9996
2 54866  43.0076   4.1576 0001670 273.0503  87.0148 15.02535688160387
STARLINK-5396           
1 54867U 22177AZ  25322.84799491  .00000583  00000+0  58215-4 0  9994
2 54867  43.0038   2.4457 0001312 257.1422 102.9274 15.02544654160437
STARLINK-5379           
1 54868U 22177BA  25322.83135423  .00000171  00000+0  27705-4 0  9996
2 54868  43.0047   2.3226 0001531 259.1175 100.9496 15.02536525160433
STARLINK-5402           
1 54869U 22177BB  25322.84134304 -.00000179  00000+0  18187-5 0  9999
2 54869  43.0065   2.3976 0001621 254.8420 105.2243 15.02536167160431
STARLINK-5401           
1 54870U 22177BC  25322.83357514 -.00000333  00000+0 -95745-5 0  9998
2 54870  43.0059   2.3405 0001763 263.4182  96.6459 15.02535735160433
